satname,norad_id,inclination_deg,eccentricity,mean_motion_rev_per_day,perigee_km,apogee_km,l1,l2
STARLINK-1316,45415,53.1546,0.0006564,15.36489733,452.01289887007533,460.9854092131018,1 45415U 20019BH  26136.78777081  .00023025  00000+0  64578-3 0  9998,2 45415  53.1546 171.4599 0006564   2.1374 357.9656 15.36489733340444
STARLINK-1286,45417,53.0447,0.0003803,15.56365648,395.6087266759896,400.76279776893534,1 45417U 20019BK  26136.79305350  .00033762  00000+0  47505-3 0  9997,2 45417  53.0447 162.1078 0003803 350.3574   9.7363 15.56365648340815
STARLINK-1308,45419,53.0459,0.0008535,15.62937086,373.41082621669557,384.9455632541094,1 45419U 20019BM  26136.85358681  .00056745  00000+0  61584-3 0  9990,2 45419  53.0459 181.6048 0008535 333.8576  26.2005 15.62937086340295
STARLINK-1329,45531,53.0424,0.0005175,15.70312752,354.5165044951618,361.4884088328081,1 45531U 20025A   26136.94495461  .00052681  00000+0  42586-3 0  9996,2 45531  53.0424 106.0312 0005175  63.8742 296.2807 15.70312752336143
STARLINK-1338,45532,53.0429,0.0004642,15.65599491,368.38199370140046,374.64837078739583,1 45532U 20025B   26136.64472333  .00069241  00000+0  67512-3 0  9993,2 45532  53.0429 113.3397 0004642  35.0808 325.0512 15.65599491336016
STARLINK-1350,45535,53.0727,0.0001697,15.37700517,451.7517299813326,454.0701876585563,1 45535U 20025E   26136.54829741  .00009360  00000+0  25924-3 0  9991,2 45535  53.0727  74.0379 0001697  66.0653 294.0527 15.37700517336598
STARLINK-1362,45538,53.1571,0.0003019,15.34847837,459.30765000683914,463.4373458416858,1 45538U 20025H   26136.74636495 -.00133050  00000+0 -39390-2 0  9995,2 45538  53.1571 143.8103 0003019  75.9514 284.1824 15.34847837335610
STARLINK-1368,45540,53.1556,0.0004283,15.35259566,457.2207828207347,463.0784591402671,1 45540U 20025K   26136.30446655  .00032977  00000+0  95621-3 0  9991,2 45540  53.1556 146.2577 0004283  42.1741 317.9591 15.35259566335534
STARLINK-1371,45542,53.0444,0.000692,15.58108868,388.4448462635037,397.8162805712727,1 45542U 20025M   26136.26498213  .00076500  00000+0  99456-3 0  9995,2 45542  53.0444 123.7910 0006920  38.6099 321.5406 15.58108868335830
STARLINK-1372,45543,53.1559,0.0004518,15.35802082,455.45031744475455,461.6279379937623,1 45543U 20025N   26136.72619549  .00018645  00000+0  53709-3 0  9991,2 45543  53.1559 143.8621 0004518  34.6980 325.4318 15.35802082334701
STARLINK-1373,45544,53.0447,0.0004334,15.67295709,363.72120601860934,369.5675825311664,1 45544U 20025P   26136.94363291  .00042953  00000+0  39444-3 0  9995,2 45544  53.0447 117.3999 0004334  17.4452 342.6711 15.67295709335986
STARLINK-1327,45555,53.0415,0.0005324,15.65016665,369.59642462231113,376.78523849735666,1 45555U 20025AA  26136.88837705  .00040088  00000+0  40373-3 0  9996,2 45555  53.0415  94.4543 0005324  21.9824 338.1418 15.65016665336295
STARLINK-1356,45564,53.0441,0.0003844,15.54849188,399.98454481061344,405.19756854058505,1 45564U 20025AK  26136.94520440  .00045506  00000+0  67350-3 0  9992,2 45564  53.0441 106.2713 0003844  26.3666 333.7539 15.54849188336133
STARLINK-1357,45565,53.0463,0.0007907,15.66828229,362.6517534101322,373.3200721844305,1 45565U 20025AL  26136.52517181  .00049886  00000+0  46511-3 0  9996,2 45565  53.0463  66.4489 0007907  56.3111 303.8657 15.66828229336660
STARLINK-1361,45567,53.044,0.0002268,15.58506113,390.4444406903549,393.5153657176479,1 45567U 20025AN  26136.95454790  .00040609  00000+0  52592-3 0  9991,2 45567  53.0440 104.6737 0002268  27.3841 332.7290 15.58506113336166
STARLINK-1363,45568,53.0325,0.0002464,16.03077516,264.2646991500096,267.5388814658727,1 45568U 20025AP  26136.93490567  .00398649  82009-4  63875-3 0  9992,2 45568  53.0325  51.2966 0002464 200.6406 159.4526 16.03077516336898
STARLINK-1366,45569,53.0337,8.88e-05,15.97453833,280.89441526826704,282.07716427573087,1 45569U 20025AQ  26137.00002315  .00269640  40495-4  59937-3 0  9997,2 45569  53.0337  52.9810 0000888 182.7587 229.0949 15.97453833  5984
STARLINK-1376,45570,53.1553,0.0005642,15.36139432,453.68147288135424,461.3948487328089,1 45570U 20025AR  26136.44781243  .00022493  00000+0  63834-3 0  9997,2 45570  53.1553 121.6249 0005642  36.0536 324.0847 15.36139432335893
STARLINK-1320,45572,53.0454,0.0003595,15.80768416,325.85546787002113,330.67737192892855,1 45572U 20025AT  26136.65545613  .00103897  00000+0  52592-3 0  9998,2 45572  53.0454   7.3533 0003595 228.9774 131.0937 15.80768416337517
STARLINK-1321,45573,53.043,0.0005544,15.59691684,384.79723115703473,392.3001322409027,1 45573U 20025AU  26136.84944881  .00035942  00000+0  44587-3 0  9990,2 45573  53.0430  89.2407 0005544  53.1970 306.9550 15.59691684336064
STARLINK-1331,45578,53.0472,0.0006712,15.5930702,385.11893454506117,394.2040272258009,1 45578U 20025AZ  26136.93434917  .00059051  00000+0  73686-3 0  9998,2 45578  53.0472  95.6884 0006712  33.7360 326.4078 15.59307020336295
STARLINK-1333,45580,53.1555,0.0003438,15.33179851,463.97905653949783,468.68531355113555,1 45580U 20025BB  26136.97325775  .00018055  00000+0  56543-3 0  9998,2 45580  53.1555 120.2071 0003438  59.2544 300.8797 15.33179851335961
STARLINK-1335,45581,53.153,0.0004504,15.34679805,458.79098720746515,464.95246706887156,1 45581U 20025BC  26136.37384113  .00036275  00000+0  10698-2 0  9998,2 45581  53.1530 119.9810 0004504  51.8110 308.3298 15.34679805335901
STARLINK-1337,45582,53.0466,0.0007516,15.71237296,350.29885836565427,360.4206506870587,1 45582U 20025BD  26136.95560412  .00056917  00000+0  44175-3 0  9994,2 45582  53.0466  86.7878 0007516  42.5030 317.6567 15.71237296336401
STARLINK-1347,45586,53.0393,0.0005095,15.66092357,366.6607566101384,373.5372090766559,1 45586U 20025BH  26136.80572236  .00046585  00000+0  44829-3 0  9995,2 45586  53.0393  57.1532 0005095  71.5224 288.6344 15.66092357336805
STARLINK-1364,45589,53.0442,0.0005383,15.60484027,382.6166699985206,389.8992175950125,1 45589U 20025BL  26136.85779853  .00035177  00000+0  42360-3 0  9990,2 45589  53.0442  93.3623 0005383  16.7267 343.3922 15.60484027336303
STARLINK-1365,45590,53.046,0.0006493,15.55441092,396.46912265856463,405.2723420998318,1 45590U 20025BM  26136.47250224  .00058047  00000+0  83700-3 0  9990,2 45590  53.0460 127.9691 0006493  14.2495 345.8697 15.55441092335802
STARLINK-1443,45660,53.1329,0.0004382,15.30646378,470.8800340996122,476.88514406748527,1 45660U 20035D   26136.93093150  .00018175  00000+0  61563-3 0  9994,2 45660  53.1329 108.7604 0004382  31.6880 328.4384 15.30646378329194
STARLINK-1446,45663,53.0233,0.0004626,15.46251372,424.5552612831452,430.85202504620156,1 45663U 20035G   26136.75596226  .00019478  00000+0  39709-3 0  9993,2 45663  53.0233  35.2638 0004626 106.5457 253.6057 15.46251372330195
STARLINK-1448,45665,53.0447,0.0007442,15.65498698,366.78158525442996,376.82819876649774,1 45665U 20035J   26136.96269776  .00044555  00000+0  43908-3 0  9995,2 45665  53.0447  80.3574 0007442  34.7867 325.3633 15.65498698329572
STARLINK-1451,45668,53.0508,0.0002664,15.13157249,524.7392548852667,528.4180873948517,1 45668U 20035M   26136.97322179  .00010048  00000+0  57608-3 0  9998,2 45668  53.0508 116.9564 0002664  51.9103 308.2129 15.13157249329075
STARLINK-1452,45669,53.0267,5.22e-05,15.54915023,402.0457142575269,402.7536022846498,1 45669U 20035N   26136.76581004  .00050086  00000+0  73851-3 0  9994,2 45669  53.0267  54.8634 0000522  93.6039 266.5031 15.54915023329927
STARLINK-1453,45670,53.0421,0.0003204,15.65929039,368.4058927617107,372.73046303971023,1 45670U 20035P   26136.93601815  .00050194  00000+0  48572-3 0  9990,2 45670  53.0421  40.8515 0003204 114.9779 245.1569 15.65929039330028
STARLINK-1454,45671,53.0435,0.0003583,15.63911851,373.94993461270224,378.79021438228756,1 45671U 20035Q   26136.56394465  .00083046  00000+0  86330-3 0  9996,2 45671  53.0435  83.3131 0003583  22.1667 337.9501 15.63911851329492
STARLINK-1456,45673,53.043,0.0006941,15.61956519,377.3137608163697,386.6981912957317,1 45673U 20035S   26136.89509962  .00059425  00000+0  66987-3 0  9994,2 45673  53.0430  76.0462 0006941  69.4359 290.7399 15.61956519329644
STARLINK-1457,45674,53.0328,0.0006716,16.1898235,217.8834747105193,226.74920363569618,1 45674U 20035T   26137.00840650  .01265562  11783-4  68777-3 0  9997,2 45674  53.0328  33.1483 0006716 247.6257 112.4069 16.18982350330219
STARLINK-1458,45675,53.048,0.0005867,15.53031317,403.90003532393894,411.862749305481,1 45675U 20035U   26136.85487052  .00052731  00000+0  83145-3 0  9995,2 45675  53.0480  89.3793 0005867  27.4017 332.7301 15.53031317329412
STARLINK-1460,45676,53.1555,0.0004203,15.33026812,463.91076873082966,469.6646124257295,1 45676U 20035V   26136.94638217  .00023984  00000+0  75031-3 0  9990,2 45676  53.1555 107.4941 0004203  67.6585 292.4862 15.33026812329172
STARLINK-1392,45677,53.152,0.0003419,15.3616895,455.1135066057468,459.7876814025276,1 45677U 20035W   26136.94489515  .00029238  00000+0  82525-3 0  9990,2 45677  53.1520 106.6425 0003419  71.8349 288.3026 15.36168950329221
STARLINK-1394,45679,53.0419,0.0007832,15.61781826,377.2151314288021,387.8050089995859,1 45679U 20035Y   26136.82968400  .00071716  00000+0  81119-3 0  9990,2 45679  53.0419  66.6021 0007832  71.2761 288.9102 15.61781826329762
STARLINK-1402,45685,53.0417,0.0007464,15.55037474,396.9829723906605,407.1044261385223,1 45685U 20035AE  26136.47865208  .00041395  00000+0  60893-3 0  9996,2 45685  53.0417  57.9791 0007464  94.2289 265.9574 15.55037474329860
STARLINK-1404,45686,53.1566,0.0005174,15.41968501,436.77226274446184,443.82798147842277,1 45686U 20035AF  26136.89427086  .00034220  00000+0  79709-3 0  9996,2 45686  53.1566  89.4532 0005174  82.4004 277.7589 15.41968501329462
STARLINK-1413,45689,53.1572,0.0003468,15.33022919,464.42545479692035,469.17310259982605,1 45689U 20035AJ  26136.85460373  .00013014  00000+0  41306-3 0  9991,2 45689  53.1572  92.5617 0003468  87.0061 273.1338 15.33022919329332
